{
  "44714": {
    "noradId": "44714",
    "tle": [
      "1 44714C 19074B   25284.82548611 -.00021767  00000+0 -14587-2 0  2845",
      "2 44714  53.0516 134.8960 0001281  90.4921 285.8790 15.06413953    17"
    ]
  },
  "44716": {
    "noradId": "44716",
    "tle": [
      "1 44716C 19074D   25284.81437500  .00287010  00000+0  10824-2 0  2843",
      "2 44716  53.0469  72.5630 0002912  93.7214  50.1201 15.86734326    19"
    ]
  },
  "44717": {
    "noradId": "44717",
    "tle": [
      "1 44717C 19074E   25284.78034722  .00213630  00000+0  13301-2 0  2849",
      "2 44717  53.0484 128.1202 0005044 145.0395 281.8234 15.76020761    19"
    ]
  },
  "44718": {
    "noradId": "44718",
    "tle": [
      "1 44718C 19074F   25284.82409722 -.00024300  00000+0 -16283-2 0  2849",
      "2 44718  53.0522 134.9033 0001694  90.3680  38.4975 15.06417269    10"
    ]
  },
  "44723": {
    "noradId": "44723",
    "tle": [
      "1 44723C 19074L   25284.82131944  .00043670  00000+0  24392-2 0  2842",
      "2 44723  53.0514 132.5473 0005102 112.9560 326.0628 15.12960842    13"
    ]
  },
  "44724": {
    "noradId": "44724",
    "tle": [
      "1 44724C 19074M   25284.81854167 -.00024195  00000+0 -16213-2 0  2847",
      "2 44724  53.0527 134.9297 0001799  90.4088  28.3019 15.06417175    16"
    ]
  },
  "44725": {
    "noradId": "44725",
    "tle": [
      "1 44725C 19074N   25284.82548611 -.00033160  00000+0 -22221-2 0  2841",
      "2 44725  53.0526 154.8979 0001300  87.0176  39.3329 15.06426685    14"
    ]
  },
  "44734": {
    "noradId": "44734",
    "tle": [
      "1 44734C 19074X   25284.77201389  .01012300  00000+0  10161-2 0  2845",
      "2 44734  53.0478 347.8587 0005599  14.4831 242.1167 16.09295126    17"
    ]
  },
  "44736": {
    "noradId": "44736",
    "tle": [
      "1 44736C 19074Z   25284.80118056  .00126570  00000+0  28600-2 0  2840",
      "2 44736  53.0509 129.7145 0009567 121.1141 203.2288 15.42422886    13"
    ]
  },
  "44741": {
    "noradId": "44741",
    "tle": [
      "1 44741C 19074AE  25284.82340278 -.00033753  00000+0 -22615-2 0  2843",
      "2 44741  53.0512 154.9078 0001611  93.6510 221.4152 15.06432011    16"
    ]
  },
  "44744": {
    "noradId": "44744",
    "tle": [
      "1 44744C 19074AH  25284.82965278  .00039661  00000+0  23246-2 0  2842",
      "2 44744  53.0505 173.6118 0007263  83.3090 227.8219 15.11223166    11"
    ]
  },
  "44747": {
    "noradId": "44747",
    "tle": [
      "1 44747C 19074AL  25284.83034722  .00030532  00000+0  70240-3 0  2842",
      "2 44747  53.0470  84.7914 0003345  77.2655 283.1551 15.42026860    17"
    ]
  },
  "44748": {
    "noradId": "44748",
    "tle": [
      "1 44748C 19074AM  25284.81090278 -.00065597  00000+0 -43953-2 0  2840",
      "2 44748  53.0518 174.9639 0001309  86.4044 310.7996 15.06462790    15"
    ]
  },
  "44751": {
    "noradId": "44751",
    "tle": [
      "1 44751C 19074AQ  25284.81437500 -.00032926  00000+0 -22064-2 0  2847",
      "2 44751  53.0510 174.9479 0001423  86.1087 249.8998 15.06426101    14"
    ]
  },
  "44752": {
    "noradId": "44752",
    "tle": [
      "1 44752C 19074AR  25284.81923611  .00013751  00000+0  48543-3 0  2845",
      "2 44752  53.0701 119.4381 0005227 113.0759 230.3784 15.28658488    12"
    ]
  },
  "44753": {
    "noradId": "44753",
    "tle": [
      "1 44753C 19074AS  25284.80465278 -.00018550  00000+0 -12431-2 0  2845",
      "2 44753  53.0515 134.9901 0001348  86.9727  56.3340 15.06411618    11"
    ]
  },
  "44758": {
    "noradId": "44758",
    "tle": [
      "1 44758C 19074AX  25284.81923611  .00068836  00000+0  90519-3 0  2845",
      "2 44758  53.0405 100.6391 0001035 147.0543 333.2642 15.57784972    19"
    ]
  },
  "44759": {
    "noradId": "44759",
    "tle": [
      "1 44759C 19074AY  25284.79840278  .00323000  00000+0  19559-2 0  2841",
      "2 44759  53.0398 128.2169 0005951 114.7142 318.7107 15.76532874    14"
    ]
  },
  "44761": {
    "noradId": "44761",
    "tle": [
      "1 44761C 19074BA  25284.83104167  .00338580  00000+0  11406-2 0  2841",
      "2 44761  53.0386 115.6418 0003912 119.3760 195.7356 15.88942470    12"
    ]
  },
  "44765": {
    "noradId": "44765",
    "tle": [
      "1 44765C 19074BE  25284.77826389  .00314670  00000+0  39343-2 0  2849",
      "2 44765  53.0542 147.1922 0000818  80.3445 272.4545 15.58876526    17"
    ]
  },
  "44768": {
    "noradId": "44768",
    "tle": [
      "1 44768C 19074BH  25284.81923611 -.00019832  00000+0 -13290-2 0  2840",
      "2 44768  53.0523 174.9262 0001390  90.2621 332.2025 15.06413402    17"
    ]
  },
  "44771": {
    "noradId": "44771",
    "tle": [
      "1 44771C 19074BL  25284.82131944 -.00029052  00000+0 -19467-2 0  2842",
      "2 44771  53.0524 174.9177 0001342  88.5209  45.2366 15.06424891    19"
    ]
  },
  "44772": {
    "noradId": "44772",
    "tle": [
      "1 44772C 19074BM  25284.81368056 -.00021365  00000+0 -14318-2 0  2847",
      "2 44772  53.0522 154.9509 0001491  88.4046  53.9071 15.06412601    13"
    ]
  },
  "44925": {
    "noradId": "44925",
    "tle": [
      "1 44925C 20001M   25284.80604167  .00152620  00000+0  26459-2 0  2840",
      "2 44925  53.0508 259.2472 0001792  87.0533 134.2081 15.50126913    16"
    ]
  },
  "44927": {
    "noradId": "44927",
    "tle": [
      "1 44927C 20001P   25284.80187500 -.00000661  00000+0 -44253-4 0  2842",
      "2 44927  53.0533 295.0052 0001485  88.0884 140.1094 15.06401379    10"
    ]
  },
  "44930": {
    "noradId": "44930",
    "tle": [
      "1 44930C 20001S   25284.81576389 -.00014733  00000+0 -98681-3 0  2842",
      "2 44930  53.0541 294.9413 0001482  76.6913 146.8879 15.06424123    11"
    ]
  },
  "44933": {
    "noradId": "44933",
    "tle": [
      "1 44933C 20001V   25284.83381944  .00191670  00000+0  27476-2 0  2845",
      "2 44933  53.0449 236.8666 0012846  25.5427 358.5351 15.55242905    12"
    ]
  },
  "44940": {
    "noradId": "44940",
    "tle": [
      "1 44940C 20001AC  25284.81854167  .00350500  00000+0  12811-2 0  2849",
      "2 44940  53.0388 218.2344 0003001  95.7210  16.3678 15.87305633    15"
    ]
  },
  "44941": {
    "noradId": "44941",
    "tle": [
      "1 44941C 20001AD  25284.81576389 -.00011195  00000+0 -75009-3 0  2842",
      "2 44941  53.0542 274.9407 0001256  83.9282  69.6876 15.06410606    14"
    ]
  },
  "44942": {
    "noradId": "44942",
    "tle": [
      "1 44942C 20001AE  25284.82548611  .00177900  00000+0  83766-3 0  2845",
      "2 44942  52.9911  45.0809 0004328 329.3736 260.7763 15.82207674    12"
    ]
  },
  "44949": {
    "noradId": "44949",
    "tle": [
      "1 44949C 20001AM  25284.80812500 -.00006252  00000+0 -41884-3 0  2849",
      "2 44949  53.0538 274.9711 0001535  91.9781 260.1404 15.06406894    17"
    ]
  },
  "44961": {
    "noradId": "44961",
    "tle": [
      "1 44961C 20001AZ  25284.82340278  .00002582  00000+0  17300-3 0  2849",
      "2 44961  53.0538 254.9068 0001683  87.3319 357.6902 15.06389999    15"
    ]
  },
  "44968": {
    "noradId": "44968",
    "tle": [
      "1 44968C 20001BG  25284.81368056 -.00030050  00000+0 -20129-2 0  2844",
      "2 44968  53.0536 254.9516 0001329  86.8859 285.4279 15.06438345    13"
    ]
  },
  "44972": {
    "noradId": "44972",
    "tle": [
      "1 44972C 20001BL  25284.82687500  .00154740  00000+0  17594-2 0  2841",
      "2 44972  53.0094 177.6678 0007254 141.2283 279.1266 15.61477092    16"
    ]
  },
  "45044": {
    "noradId": "45044",
    "tle": [
      "1 45044C 20006A   25284.80951389 -.00055586  00000+0 -37241-2 0  2845",
      "2 45044  53.0537 214.9693 0001370  89.9978 119.6717 15.06456984    18"
    ]
  },
  "45047": {
    "noradId": "45047",
    "tle": [
      "1 45047C 20006D   25284.81298611 -.00050876  00000+0 -34079-2 0  2844",
      "2 45047  53.0540 235.4926 0001429  82.8317 275.3186 15.06458522    16"
    ]
  },
  "45048": {
    "noradId": "45048",
    "tle": [
      "1 45048C 20006E   25284.74215278  .00012630  00000+0  48731-3 0  2840",
      "2 45048  53.0361 216.4271 0011456  77.6094  96.8805 15.25682564    15"
    ]
  },
  "45054": {
    "noradId": "45054",
    "tle": [
      "1 45054C 20006L   25284.81159722 -.00055260  00000+0 -37012-2 0  2843",
      "2 45054  53.0524 234.9609 0001658  92.0829  58.9015 15.06466613    19"
    ]
  },
  "45057": {
    "noradId": "45057",
    "tle": [
      "1 45057C 20006P   25284.81993056 -.00057585  00000+0 -38572-2 0  2846",
      "2 45057  53.0531 234.9220 0001809  89.4958  26.6840 15.06466043    15"
    ]
  },
  "45060": {
    "noradId": "45060",
    "tle": [
      "1 45060C 20006S   25284.81437500 -.00060306  00000+0 -40393-2 0  2846",
      "2 45060  53.0534 234.9484 0001428  88.4929 297.5585 15.06470383    15"
    ]
  },
  "45061": {
    "noradId": "45061",
    "tle": [
      "1 45061C 20006T   25284.82409722 -.00057904  00000+0 -38779-2 0  2848",
      "2 45061  53.0537 234.9048 0001409  94.2809 304.5300 15.06472953    15"
    ]
  },
  "45062": {
    "noradId": "45062",
    "tle": [
      "1 45062C 20006U   25284.81090278  .01000800  00000+0  62245-1 0  2846",
      "2 45062  53.0539 234.9542 0001566  80.0791 329.9008 15.08136087    17"
    ]
  },
  "45064": {
    "noradId": "45064",
    "tle": [
      "1 45064C 20006W   25284.82201389 -.00109920  00000+0 -73601-2 0  2849",
      "2 45064  53.0533 214.9101 0001506  92.3825 305.1112 15.06532204    11"
    ]
  },
  "45071": {
    "noradId": "45071",
    "tle": [
      "1 45071C 20006AD  25284.81368056 -.00063380  00000+0 -42461-2 0  2840",
      "2 45071  53.0530 214.9513 0001297  85.2733 127.0246 15.06465422    15"
    ]
  },
  "45072": {
    "noradId": "45072",
    "tle": [
      "1 45072C 20006AE  25284.81576389 -.00056539  00000+0 -37874-2 0  2841",
      "2 45072  53.0529 214.9410 0001316  87.2680 116.3333 15.06462756    10"
    ]
  }
}